OBJECT_NAME,OBJECT_ID,EPOCH,MEAN_MOTION,ECCENTRICITY,INCLINATION,RA_OF_ASC_NODE,ARG_OF_PERICENTER,MEAN_ANOMALY,EPHEMERIS_TYPE,CLASSIFICATION_TYPE,NORAD_CAT_ID,ELEMENT_SET_NO,REV_AT_EPOCH,BSTAR,MEAN_MOTION_DOT,MEAN_MOTION_DDOT
JILIN-1 06,2017-074C,2026-07-13T06:04:31.713312,15.33982235,.00079707,97.4807,297.7430,139.9700,220.2131,0,U,43024,999,47783,.1095945E-3,.3524E-4,0
IRIDIUM 116,2017-083C,2026-07-13T07:24:07.058592,14.34217448,.00024352,86.3985,311.0819,99.2521,260.8950,0,U,43072,999,44791,.42667247E-4,.139E-5,0
IRIDIUM 130,2017-083D,2026-07-13T06:38:27.409632,14.34217466,.00022262,86.3992,311.3730,100.8626,259.2821,0,U,43073,999,44785,.39458144E-4,.13E-5,0
LKW-2,2017-084A,2026-07-13T07:32:59.966016,15.26675120,.00034451,97.1182,232.8923,123.3362,236.8208,0,U,43080,999,47567,.17334207E-3,.448E-4,0
SUPERVIEW-1 03,2018-002A,2026-07-13T06:59:44.598624,15.40169341,.00470562,97.3137,279.1031,87.7903,272.8731,0,U,43099,999,47238,.27789522E-3,.1151E-3,0
CARTOSAT-2F,2018-004A,2026-07-13T06:58:46.612128,15.19263559,.00025738,97.4783,253.6687,139.7372,220.4054,0,U,43111,999,47129,.14906876E-3,.3074E-4,0
LKW-3,2018-006A,2026-07-13T07:35:38.109120,15.35724921,.00028171,97.6626,355.9232,187.0793,173.0411,0,U,43146,999,47272,.21799746E-3,.7489E-4,0
ASNARO-2,2018-007A,2026-07-13T14:36:15.904224,15.22409968,.0001885,97.3972,201.1226,91.6393,268.5059,0,U,43152,999,47143,.30746E-3,.7037E-4,0
JILIN-1 07,2018-008E,2026-07-13T07:11:58.164864,15.35144443,.00069147,97.1763,213.5381,336.1015,23.9907,0,U,43159,999,46900,.1559773E-3,.5245E-4,0
JILIN-1 08,2018-008F,2026-07-13T07:38:46.696992,15.33996771,.00055393,97.1801,212.8433,359.8855,0.2386,0,U,43160,999,46895,.11081215E-3,.3569E-4,0
S-NET D,2018-014G,2026-07-12T17:29:07.648800,15.16904418,.00063893,97.5340,98.3608,295.6032,64.4541,0,U,43186,999,46263,.14005201E-3,.2692E-4,0
S-NET B,2018-014H,2026-07-13T03:16:17.779296,15.16876626,.00069298,97.5344,98.7534,287.5249,72.5227,0,U,43187,999,46269,.14811181E-3,.2849E-4,0
S-NET A,2018-014J,2026-07-13T04:32:14.198208,15.16915568,.00068357,97.5355,99.0197,288.4981,71.5509,0,U,43188,999,46270,.13714464E-3,.2636E-4,0
S-NET C,2018-014K,2026-07-13T04:57:04.173120,15.16868362,.00081462,97.5373,99.1155,278.8118,81.2193,0,U,43189,999,46125,.14959163E-3,.2878E-4,0
PAZ,2018-020A,2026-07-13T06:09:40.616640,15.19153724,.0001701,97.4454,201.2720,89.9570,270.1859,0,U,43215,999,46496,.52328299E-4,.1032E-4,0
GOES 17,2018-022A,2026-07-13T06:51:42.401088,1.00271327,.00005314,1.0016,85.2872,84.0354,135.2753,0,U,43226,999,3068,0,-.186E-5,0
LKW-4,2018-025A,2026-07-12T22:31:51.716928,15.64389361,.00032791,97.6341,6.8731,190.1496,169.9697,0,U,43236,999,46405,.37898082E-3,.36258E-3,0
ZHUHAI-1 OVS-02,2018-040B,2026-07-13T06:40:02.074656,15.25361241,.00048899,97.0381,209.9642,140.1705,219.9894,0,U,43440,999,45669,.16362589E-3,.4062E-4,0
ZHUHAI-1 OHS-02,2018-040C,2026-07-13T07:31:33.019104,15.26250263,.00110638,97.0360,216.9634,130.9753,229.2446,0,U,43441,999,11826,.17575486E-3,.4493E-4,0
GAOFEN-6,2018-048A,2026-07-13T07:10:15.945024,14.76382514,.00121595,98.0966,256.9962,87.1697,273.0904,0,U,43484,999,43724,.54656386E-4,.328E-5,0
LUOJIA-1 01,2018-048B,2026-07-13T06:39:13.356288,14.87375078,.00098972,97.8103,272.0462,43.0801,317.1188,0,U,43485,999,43809,.41575281E-4,.322E-5,0
PAKTES 1A,2018-056A,2026-07-13T07:15:26.789760,14.99199598,.00199916,98.1282,351.9033,25.7282,334.4930,0,U,43529,999,43583,.87164699E-4,.1E-4,0
PRSS-1,2018-056B,2026-07-13T07:39:26.853120,14.82025359,.00012921,97.7816,261.4641,85.2207,274.9154,0,U,43530,999,43230,-.13647747E-4,-.159E-5,0
HAIYANG-1C,2018-068A,2026-07-13T06:25:37.219296,14.34185526,.00112799,98.5189,266.1974,23.8440,336.3265,0,U,43609,999,41082,-.56197479E-4,-.201E-5,0
SSTL S1-4,2018-071A,2026-07-13T05:42:17.056224,14.96201013,.00020363,97.4997,64.7638,97.8301,262.3152,0,U,43618,999,42683,.39962572E-4,.396E-5,0
HAIYANG-2B,2018-081A,2026-07-13T06:38:47.532192,13.79307145,.00008029,99.3289,202.6393,148.0396,212.0805,0,U,43655,999,38852,.22465237E-3,.187E-5,0
CZ-4B R/B,2018-081B,2026-07-13T05:59:48.291936,14.31872002,.02044654,99.3662,114.2523,191.4383,168.2114,0,U,43656,999,40303,.20726144E-4,.11E-6,0
CFOSAT,2018-083A,2026-07-13T06:57:36.717984,15.16528801,.00019002,97.3616,198.0540,75.5327,284.6117,0,U,43662,999,42639,.983544E-4,.1853E-4,0
TEN-KOH,2018-084G,2026-07-12T11:44:03.243552,15.03036085,.00099828,98.0754,26.9162,38.1645,322.0284,0,U,43677,999,41996,.14412106E-3,.1876E-4,0
DIWATA-2B,2018-084H,2026-07-13T05:51:05.875200,15.00558401,.00129446,98.1217,31.5932,90.2808,269.9897,0,U,43678,999,42012,.95376242E-4,.1139E-4,0
STARS-AO,2018-084J,2026-07-12T12:45:04.199904,15.17327321,.00036091,98.0478,49.0667,85.7607,274.4037,0,U,43679,999,42131,.17779076E-3,.347E-4,0
AUTCUBE 2,2018-084K,2026-07-12T12:59:21.212736,15.10253774,.00079937,98.0693,41.0610,324.9177,35.1524,0,U,43681,999,42075,.12139039E-3,.1915E-4,0
METOP-C,2018-087A,2026-07-13T06:03:01.176480,14.21518723,.00022134,98.6631,253.3775,96.3455,263.7975,0,U,43689,999,39853,.43716028E-4,.52E-6,0
ES'HAIL 2,2018-090A,2026-07-13T06:44:18.386304,1.00269877,.00021653,0.0035,116.9627,43.0890,257.9676,0,U,43700,999,2793,0,.141E-5,0
MOHAMMED VI-B,2018-095A,2026-07-13T06:10:54.333120,14.77079979,.00017527,97.9554,266.2220,94.9754,265.1656,0,U,43717,999,41203,.29606851E-4,.158E-5,0
HYSIS,2018-096A,2026-07-13T07:58:31.374912,14.78665997,.00018293,97.9836,260.8735,84.6622,275.4798,0,U,43719,999,41128,.1426594E-4,.53E-6,0
COSMOS 2530 (RODNIK-S 16),2018-097A,2026-07-13T07:07:29.205984,12.42881730,.0019054,82.5122,206.0760,343.2112,16.8335,0,U,43751,999,34553,.47470275E-4,.16E-6,0
COSMOS 2531 (RODNIK-S 17),2018-097B,2026-07-13T07:38:38.050080,12.42912868,.00166824,82.5167,207.1299,3.1466,356.9715,0,U,43752,999,34555,-.39646697E-3,-.45E-6,0
COSMOS 2532 (RODNIK-S 18),2018-097C,2026-07-13T06:23:30.731424,12.42910457,.00181273,82.5112,205.9364,5.0522,355.0737,0,U,43753,999,34551,.81775454E-4,.21E-6,0
MINXSS-2,2018-099A,2026-07-12T18:11:38.125824,15.48699812,.00084198,97.4535,270.8221,167.9951,192.1502,0,U,43758,999,41808,.59116908E-3,.31684E-3,0
SIRION PATHFINDER-2,2018-099B,2026-07-12T22:42:56.582208,15.14767949,.00082388,97.4243,242.3930,199.6407,160.4509,0,U,43759,999,41652,.16275605E-3,.2956E-4,0
AISTECHSAT 2,2018-099L,2026-07-12T20:06:55.963008,15.15700376,.00043582,97.4282,241.3121,187.9002,172.2162,0,U,43768,999,41616,.16794924E-3,.3133E-4,0
FOX-1CLIFF (AO-95),2018-099N,2026-07-13T03:48:48.256704,15.27248870,.00071002,97.4377,254.3164,248.3656,111.6827,0,U,43770,999,41718,.288771E-3,.7642E-4,0
RANGE-A,2018-099R,2026-07-13T02:16:28.235136,15.13598264,.00085652,97.3954,235.9170,253.7902,106.2388,0,U,43773,999,41641,.13198546E-3,.2307E-4,0
SNUSAT-2,2018-099AA,2026-07-13T02:30:57.985920,15.22221251,.00100166,97.4049,247.0942,195.0544,165.0396,0,U,43782,999,41697,.23872678E-3,.5423E-4,0
SNUGLITE,2018-099AC,2026-07-13T02:03:32.486688,15.27730739,.0003411,97.3859,248.1176,165.0188,195.1153,0,U,43784,999,41727,.30526396E-3,.8199E-4,0
ITASAT,2018-099AE,2026-07-13T02:30:20.916864,15.19367142,.00107978,97.4018,245.1017,258.8384,101.1638,0,U,43786,999,41684,.19803325E-3,.4125E-4,0
EAGLET-I,2018-099AJ,2026-07-12T13:56:11.717952,15.13122395,.0009508,97.4222,242.5773,254.7473,105.2707,0,U,43790,999,41617,.11153E-3,.1913E-4,0
ESEO,2018-099AL,2026-07-13T01:20:46.671936,15.04316505,.00108475,97.3953,230.3353,242.0380,117.9749,0,U,43792,999,41569,.10602205E-3,.142E-4,0
THEA,2018-099AQ,2026-07-13T03:20:56.465088,15.35892366,.00078367,97.4438,264.0977,180.9017,179.2214,0,U,43796,999,41667,.39377108E-3,.13695E-3,0
ASTROCAST 0.1,2018-099AS,2026-07-13T00:18:29.130624,15.51347315,.00056625,97.4379,273.3471,138.1957,221.9729,0,U,43798,999,41843,.51994349E-3,.30554E-3,0
JY1SAT (JO-97),2018-099AX,2026-07-11T16:29:36.040416,15.34443331,.00065178,97.4124,255.6172,168.9842,191.1545,0,U,43803,999,41738,.301087E-3,.9972E-4,0
SUOMI-100,2018-099AY,2026-07-12T17:37:34.764096,15.28995113,.0010278,97.4181,254.0402,180.4241,179.6992,0,U,43804,999,41732,.28389883E-3,.7931E-4,0
CENTAURI-1,2018-099BD,2026-07-12T16:13:08.272416,15.16610155,.00127894,97.4213,244.8497,234.4410,125.5632,0,U,43809,999,41636,.16299874E-3,.3124E-4,0
GLOBAL-2,2018-099BG,2026-07-12T13:01:18.854112,15.08816851,.00075507,97.3547,229.0016,74.5757,285.6306,0,U,43812,999,41573,.83393152E-4,.1252E-4,0
SEAHAWK-1,2018-099BQ,2026-07-12T22:57:57.938112,15.23217554,.00076828,97.3948,246.0539,206.4282,153.6564,0,U,43820,999,41645,.25615213E-3,.5996E-4,0
SAUDISAT 5A,2018-102A,2026-07-13T06:59:14.186688,15.28308810,.00105948,97.3057,255.3709,49.8307,310.3859,0,U,43831,999,41966,.11509968E-3,.3104E-4,0
SAUDISAT 5B,2018-102C,2026-07-13T07:20:13.308576,15.28552662,.0011363,97.3166,258.5022,51.2072,309.0181,0,U,43833,999,41978,.10848824E-3,.2944E-4,0
2018-102D,2018-102D,2026-07-13T07:07:22.738944,15.71307472,.00024104,97.3434,284.7087,268.9154,91.1833,0,U,43834,999,42134,.46127155E-3,.58622E-3,0
ISAT,2018-111D,2026-07-12T18:09:40.893984,15.70444929,.00073618,97.5864,131.0427,144.6436,215.5316,0,U,43879,999,41517,.8439889E-3,.104276E-2,0
UWE-4,2018-111E,2026-07-12T18:23:27.129408,15.47716069,.00057472,97.5844,123.3656,204.5147,155.5830,0,U,43880,999,41473,.53441815E-3,.27634E-3,0
D-STAR ONE (SPARROW),2018-111F,2026-07-13T07:18:34.308000,15.84268134,.00077204,97.6080,137.8124,142.0872,218.0943,0,U,43881,999,41549,.86694594E-3,.199656E-2,0
JILIN-1 09,2019-005B,2026-07-13T07:18:16.736832,15.20731354,.00024887,97.4748,289.0478,40.5160,319.6260,0,U,43943,999,41311,.11515621E-3,.2464E-4,0
JILIN-1 10,2019-005E,2026-07-13T07:01:16.904064,15.25993997,.00083982,97.4799,293.1023,176.0621,184.0684,0,U,43946,999,41329,.13488945E-3,.3396E-4,0
EGYPTSAT-A (MISRSAT-A),2019-008A,2026-07-13T07:23:47.126112,14.72335202,.00017136,98.0189,258.7182,95.5446,264.5957,0,U,44047,999,39708,.41926588E-4,.216E-5,0
